KUIPER-00167            
1 65780U 25217U   25350.33337963 -.00049793  00000+0 -53636-2 0  9993
2 65780  51.8975  54.3230 0010522   3.2350  39.7253 14.88113036  1301
KUIPER-00168            
1 65781U 25217V   25350.31899166  .00035703  00000+0  95380-3 0  9997
2 65781  51.8717  46.4925 0000851  27.4715 332.6317 15.37752093 12604
KUIPER-00169            
1 65782U 25217W   25350.33337963 -.00968108  00000+0 -36933-1 0  9995
2 65782  51.8760  47.2035 0005102   8.7029  60.1763 15.28732222  5880
KUIPER-00170            
1 65783U 25217X   25350.33337963 -.00063657  00000+0 -36436-2 0  9990
2 65783  51.8856  49.5336 0009163  23.9897 347.5177 15.12292726  4635
KUIPER-00171            
1 65784U 25217Y   25350.29726248  .00210427  00000+0  16405-2 0  9995
2 65784  51.8570  38.1321 0010806  22.5017 337.6455 15.70442946 12714
KUIPER-00172            
1 65785U 25217Z   25350.33337963 -.01486092  00000+0 -53029-1 0  9991
2 65785  51.8763  46.6444 0004975  18.9500 297.0123 15.31661021  5611
KUIPER-00173            
1 65786U 25217AA  25350.33337963 -.01319579  00000+0 -57438-1 0  9995
2 65786  51.8774  47.3350 0002351 332.4368 349.9251 15.24855582  5191
KUIPER-00174            
1 65787U 25217AB  25350.19570219  .00041104  00000+0  10627-2 0  9996
2 65787  51.8726  47.1620 0002583 343.3996  16.6906 15.38693915 12583
